BEESAT-4                
1 41619U 16040W   21274.37393178  .00005821  00000-0  22803-3 0  9993
2 41619  97.2589 327.4699 0009234 324.4577  35.6045 15.26125707281160
CAS-2T & KS-1Q          
1 41847U 16066G   21274.56966043  .00000233  00000-0  46275-4 0  9994
2 41847  98.5902 334.0821 0363940 263.5734  92.3900 14.38242714257132
NAYIF-1 (EO-88)         
1 42017U 17008BX  21274.41981883  .00006970  00000-0  25097-3 0  9996
2 42017  97.3062 340.1085 0007570  93.5990 266.6115 15.28861859257440
ZHUHAI-1 02 (CAS-4B)    
1 42759U 17034B   21274.51801821  .00001267  00000-0  89027-4 0  9990
2 42759  43.0190 317.9061 0006775 108.2848  33.8166 15.10402757237189
ZHUHAI-1 01 (CAS-4A)    
1 42761U 17034D   21274.63541237  .00001156  00000-0  82187-4 0  9995
2 42761  43.0193 316.2371 0007200 110.6679  33.2358 15.10489536237204
MAX VALIER SAT          
1 42778U 17036P   21274.35748598  .00003616  00000-0  15186-3 0  9990
2 42778  97.2451 319.4587 0012539 155.2307 204.9536 15.24002304237415
RADFXSAT (FOX-1B)       
1 43017U 17073E   21274.30181840  .00002587  00000-0  20395-3 0  9998
2 43017  97.6942 174.0397 0253146 315.2373  42.8656 14.79794045208775
FOX-1D (AO-92)          
1 43137U 18004AC  21274.46706970  .00004611  00000-0  18361-3 0  9990
2 43137  97.3987 347.3961 0008438 186.7333 173.3793 15.25705678206827
DIWATA-2B               
1 43678U 18084H   21274.56706090  .00000031  00000-0  88923-5 0  9997
2 43678  97.9369  40.4761 0011244  65.5385 294.7018 14.91794450159256
ES'HAIL 2               
1 43700U 18090A   21274.32757969  .00000142  00000-0  00000-0 0  9993
2 43700   0.0187 167.7518 0002442  55.9615 290.3031  1.00273165 10431
FOX-1CLIFF (AO-95)      
1 43770U 18099N   21274.44181963  .00000603  00000-0  59512-4 0  9995
2 43770  97.6557 342.2436 0015721  65.9440 294.3424 14.95448713154295
ITASAT 1                
1 43786U 18099AE  21274.14008442  .00001260  00000-0  11796-3 0  9990
2 43786  97.6579 342.7004 0016391  60.9103 299.3758 14.95726199154288
JY1SAT (JO-97)          
1 43803U 18099AX  21274.42013320  .00001265  00000-0  11761-3 0  9999
2 43803  97.6543 342.7154 0016412  59.5917 300.6924 14.96002005154337
UWE-4                   
1 43880U 18111E   21274.46619278  .00000925  00000-0  85303-4 0  9993
2 43880  97.6766 180.3464 0013358 106.7756 253.4932 14.97003556148948
NEXUS (FO-99)           
1 43937U 19003F   21274.41958288  .00005311  00000-0  20595-3 0  9994
2 43937  97.1675 313.3309 0022663   1.2845 358.8449 15.26295068150421
PSAT2 (NO-104)          
1 44354U 19036R   21274.34380453  .00032676  00000-0  41743-3 0  9991
2 44354  28.5275 139.2150 0312302 347.1673  12.1119 15.16961787125053
BRICSAT2 (NO-103)       
1 44355U 19036S   21274.54246245  .00091657 -40339-5  87860-3 0  9993
2 44355  28.5248  73.2429 0234404  94.3374 268.4043 15.37693968125738
JAISAT-1                
1 44419U 19038F   21274.45642031  .00004555  00000-0  25251-3 0  9991
2 44419  97.5999 238.8532 0019534 310.1466  49.8054 15.14144552123835
DUCHIFAT-3              
1 44854U 19089C   21274.46480698  .00001342  00000-0  11312-3 0  9994
2 44854  36.9658 193.6390 0009225 280.4857  79.4852 14.99657770 99027
CAS-6 (TO-108)          
1 44881U 19093C   21274.50773668  .00000150  00000-0  25900-4 0  9991
2 44881  97.9175 352.1498 0014085 312.4815  47.5206 14.81485568 96435
RS-44 & BREEZE-KM R/B   
1 44909U 19096E   21274.40762631  .00000008  00000-0 -12237-4 0  9994
2 44909  82.5233  42.3959 0217124 205.1573 153.8827 12.79711090 82374
ORBITAL FACTORY 2 (OF-2)
1 45113U 19071C   21274.31293353  .00009149  00000-0  26099-3 0  9999
2 45113  51.6428 243.9175 0011034 320.2785  39.7389 15.36733074 93447
HUSKYSAT-1 (HO-107)     
1 45119U 19071J   21274.38973268  .00010930  00000-0  31016-3 0  9997
2 45119  51.6401 242.9220 0010476 316.8339  43.1822 15.36683185 93458
BY70-2                  
1 45857U 20042B   21274.45149937  .00001941  00000-0  28028-3 0  9993
2 45857  97.9782 349.0899 0010133 225.7431 134.2956 14.77329936 67191
SALSAT                  
1 46495U 20068K   21274.61245612  .00000700  00000-0  55580-4 0  9991
2 46495  97.6988 211.5127 0019030  74.7459 285.5868 15.03572951 55285
BY70-3                  
1 46839U 20079N   21274.51013919  .00006777  00000-0  20471-3 0  9997
2 46839  97.2315 346.2686 0007253 172.4370 283.8819 15.34538235 50468
RADFXSAT-2 (AO-109)     
1 47311U 21002C   21274.33364930  .00003630  00000-0  16580-3 0  9993
2 47311  60.6857 254.7275 0041607 101.5291 259.0472 15.22068940 38983
UVSQ-SAT                
1 47438U 21006AB  21274.44480792  .00003010  00000-0  17182-3 0  9995
2 47438  97.4769 333.7266 0014321  92.5594 267.7277 15.13416739 38082
DIY-1 (ARDUIQUBE)       
1 47963U 21022AH  21274.16558763  .00005912  00000-0  38848-3 0  9994
2 47963  97.5464 174.6043 0018143 308.0203  51.9387 15.07848878 27822
